[{"OBJECT_NAME":"TRANSPORTER-16 OBJECT AQ","OBJECT_ID":"2026-067AQ","EPOCH":"2026-04-17T20:08:58.211232","MEAN_MOTION":15.17010733,"ECCENTRICITY":0.00033859,"INCLINATION":97.4536,"RA_OF_ASC_NODE":67.1906,"ARG_OF_PERICENTER":277.7615,"MEAN_ANOMALY":82.3234,"EPHEMERIS_TYPE":0,"CLASSIFICATION_TYPE":"U","NORAD_CAT_ID":68454,"ELEMENT_SET_NO":999,"REV_AT_EPOCH":278,"BSTAR":0.00022212702,"MEAN_MOTION_DOT":4.324e-5,"MEAN_MOTION_DDOT":0},{"OBJECT_NAME":"TRANSPORTER-16 OBJECT AR","OBJECT_ID":"2026-067AR","EPOCH":"2026-04-17T20:11:18.774528","MEAN_MOTION":15.1684389,"ECCENTRICITY":0.0003786,"INCLINATION":97.4537,"RA_OF_ASC_NODE":67.1879,"ARG_OF_PERICENTER":275.9303,"MEAN_ANOMALY":84.1499,"EPHEMERIS_TYPE":0,"CLASSIFICATION_TYPE":"U","NORAD_CAT_ID":68455,"ELEMENT_SET_NO":999,"REV_AT_EPOCH":278,"BSTAR":0.00018047969,"MEAN_MOTION_DOT":3.484e-5,"MEAN_MOTION_DDOT":0},{"OBJECT_NAME":"PARUS-6U1","OBJECT_ID":"2026-067AS","EPOCH":"2026-04-17T20:11:06.462528","MEAN_MOTION":15.16870724,"ECCENTRICITY":0.000373,"INCLINATION":97.4512,"RA_OF_ASC_NODE":67.1822,"ARG_OF_PERICENTER":276.5615,"MEAN_ANOMALY":83.5194,"EPHEMERIS_TYPE":0,"CLASSIFICATION_TYPE":"U","NORAD_CAT_ID":68456,"ELEMENT_SET_NO":999,"REV_AT_EPOCH":278,"BSTAR":0.00021185411,"MEAN_MOTION_DOT":4.104e-5,"MEAN_MOTION_DDOT":0},{"OBJECT_NAME":"TRANSPORTER-16 OBJECT AT","OBJECT_ID":"2026-067AT","EPOCH":"2026-04-17T19:46:58.491840","MEAN_MOTION":15.18325271,"ECCENTRICITY":0.00023195,"INCLINATION":97.4509,"RA_OF_ASC_NODE":67.2034,"ARG_OF_PERICENTER":134.6246,"MEAN_ANOMALY":225.5178,"EPHEMERIS_TYPE":0,"CLASSIFICATION_TYPE":"U","NORAD_CAT_ID":68457,"ELEMENT_SET_NO":999,"REV_AT_EPOCH":278,"BSTAR":0.00035888589,"MEAN_MOTION_DOT":7.3e-5,"MEAN_MOTION_DDOT":0},{"OBJECT_NAME":"SAL-E","OBJECT_ID":"2026-067AU","EPOCH":"2026-04-17T20:11:33.033984","MEAN_MOTION":15.16877365,"ECCENTRICITY":0.00039744,"INCLINATION":97.4438,"RA_OF_ASC_NODE":67.166,"ARG_OF_PERICENTER":291.1678,"MEAN_ANOMALY":68.9131,"EPHEMERIS_TYPE":0,"CLASSIFICATION_TYPE":"U","NORAD_CAT_ID":68458,"ELEMENT_SET_NO":999,"REV_AT_EPOCH":278,"BSTAR":0.00029433623,"MEAN_MOTION_DOT":5.731e-5,"MEAN_MOTION_DDOT":0},{"OBJECT_NAME":"TRANSPORTER-16 OBJECT AV","OBJECT_ID":"2026-067AV","EPOCH":"2026-04-18T15:12:38.013120","MEAN_MOTION":15.16795655,"ECCENTRICITY":0.00041129,"INCLINATION":97.4496,"RA_OF_ASC_NODE":67.9546,"ARG_OF_PERICENTER":273.5923,"MEAN_ANOMALY":86.484,"EPHEMERIS_TYPE":0,"CLASSIFICATION_TYPE":"U","NORAD_CAT_ID":68459,"ELEMENT_SET_NO":999,"REV_AT_EPOCH":290,"BSTAR":0.0002730349,"MEAN_MOTION_DOT":5.298e-5,"MEAN_MOTION_DDOT":0},{"OBJECT_NAME":"COSMO","OBJECT_ID":"2026-067AW","EPOCH":"2026-04-17T20:12:19.024704","MEAN_MOTION":15.16825796,"ECCENTRICITY":0.00041241,"INCLINATION":97.446,"RA_OF_ASC_NODE":67.1701,"ARG_OF_PERICENTER":283.9089,"MEAN_ANOMALY":76.1685,"EPHEMERIS_TYPE":0,"CLASSIFICATION_TYPE":"U","NORAD_CAT_ID":68460,"ELEMENT_SET_NO":999,"REV_AT_EPOCH":278,"BSTAR":0.00027267839,"MEAN_MOTION_DOT":5.296e-5,"MEAN_MOTION_DDOT":0},{"OBJECT_NAME":"TRANSPORTER-16 OBJECT AX","OBJECT_ID":"2026-067AX","EPOCH":"2026-04-17T20:03:39.658752","MEAN_MOTION":15.17322382,"ECCENTRICITY":0.00018647,"INCLINATION":97.4514,"RA_OF_ASC_NODE":67.1908,"ARG_OF_PERICENTER":288.2945,"MEAN_ANOMALY":71.8085,"EPHEMERIS_TYPE":0,"CLASSIFICATION_TYPE":"U","NORAD_CAT_ID":68461,"ELEMENT_SET_NO":999,"REV_AT_EPOCH":278,"BSTAR":0.00027378459,"MEAN_MOTION_DOT":5.394e-5,"MEAN_MOTION_DDOT":0},{"OBJECT_NAME":"TRANSPORTER-16 OBJECT AY","OBJECT_ID":"2026-067AY","EPOCH":"2026-04-17T19:53:57.057504","MEAN_MOTION":15.17883455,"ECCENTRICITY":0.00012435,"INCLINATION":97.4517,"RA_OF_ASC_NODE":67.2005,"ARG_OF_PERICENTER":183.4572,"MEAN_ANOMALY":176.6654,"EPHEMERIS_TYPE":0,"CLASSIFICATION_TYPE":"U","NORAD_CAT_ID":68462,"ELEMENT_SET_NO":999,"REV_AT_EPOCH":278,"BSTAR":0.0002769044,"MEAN_MOTION_DOT":5.545e-5,"MEAN_MOTION_DDOT":0},{"OBJECT_NAME":"TRANSPORTER-16 OBJECT AZ","OBJECT_ID":"2026-067AZ","EPOCH":"2026-04-17T20:03:31.531968","MEAN_MOTION":15.17293251,"ECCENTRICITY":0.00017714,"INCLINATION":97.4493,"RA_OF_ASC_NODE":67.1871,"ARG_OF_PERICENTER":294.066,"MEAN_ANOMALY":66.0388,"EPHEMERIS_TYPE":0,"CLASSIFICATION_TYPE":"U","NORAD_CAT_ID":68463,"ELEMENT_SET_NO":999,"REV_AT_EPOCH":278,"BSTAR":4.2414469e-5,"MEAN_MOTION_DOT":7.79e-6,"MEAN_MOTION_DDOT":0},{"OBJECT_NAME":"TRANSPORTER-16 OBJECT BA","OBJECT_ID":"2026-067BA","EPOCH":"2026-04-17T20:03:41.122368","MEAN_MOTION":15.17281095,"ECCENTRICITY":0.00015244,"INCLINATION":97.4478,"RA_OF_ASC_NODE":67.181,"ARG_OF_PERICENTER":313.8014,"MEAN_ANOMALY":46.3094,"EPHEMERIS_TYPE":0,"CLASSIFICATION_TYPE":"U","NORAD_CAT_ID":68464,"ELEMENT_SET_NO":999,"REV_AT_EPOCH":278,"BSTAR":0.0001772292,"MEAN_MOTION_DOT":3.463e-5,"MEAN_MOTION_DDOT":0},{"OBJECT_NAME":"TRANSPORTER-16 OBJECT BB","OBJECT_ID":"2026-067BB","EPOCH":"2026-04-17T20:03:55.933920","MEAN_MOTION":15.17246757,"ECCENTRICITY":0.00016636,"INCLINATION":97.4483,"RA_OF_ASC_NODE":67.1823,"ARG_OF_PERICENTER":308.0006,"MEAN_ANOMALY":52.1077,"EPHEMERIS_TYPE":0,"CLASSIFICATION_TYPE":"U","NORAD_CAT_ID":68465,"ELEMENT_SET_NO":999,"REV_AT_EPOCH":278,"BSTAR":0.0001109961,"MEAN_MOTION_DOT":2.142e-5,"MEAN_MOTION_DDOT":0},{"OBJECT_NAME":"TRANSPORTER-16 OBJECT BC","OBJECT_ID":"2026-067BC","EPOCH":"2026-04-17T20:13:16.883328","MEAN_MOTION":15.16762425,"ECCENTRICITY":0.00043088,"INCLINATION":97.4446,"RA_OF_ASC_NODE":67.1649,"ARG_OF_PERICENTER":300.9886,"MEAN_ANOMALY":59.0924,"EPHEMERIS_TYPE":0,"CLASSIFICATION_TYPE":"U","NORAD_CAT_ID":68466,"ELEMENT_SET_NO":999,"REV_AT_EPOCH":263,"BSTAR":0.000263164,"MEAN_MOTION_DOT":5.1e-5,"MEAN_MOTION_DDOT":0},{"OBJECT_NAME":"TRANSPORTER-16 OBJECT BD","OBJECT_ID":"2026-067BD","EPOCH":"2026-04-17T20:09:39.139776","MEAN_MOTION":15.17124836,"ECCENTRICITY":0.00042474,"INCLINATION":97.4378,"RA_OF_ASC_NODE":67.1558,"ARG_OF_PERICENTER":295.3984,"MEAN_ANOMALY":64.681,"EPHEMERIS_TYPE":0,"CLASSIFICATION_TYPE":"U","NORAD_CAT_ID":68467,"ELEMENT_SET_NO":999,"REV_AT_EPOCH":278,"BSTAR":0.00058474966,"MEAN_MOTION_DOT":0.00011541,"MEAN_MOTION_DDOT":0},{"OBJECT_NAME":"ERMIS-1","OBJECT_ID":"2026-067BE","EPOCH":"2026-04-18T15:14:39.914016","MEAN_MOTION":15.1672519,"ECCENTRICITY":0.00046803,"INCLINATION":97.4522,"RA_OF_ASC_NODE":67.9588,"ARG_OF_PERICENTER":263.2357,"MEAN_ANOMALY":96.8344,"EPHEMERIS_TYPE":0,"CLASSIFICATION_TYPE":"U","NORAD_CAT_ID":68468,"ELEMENT_SET_NO":999,"REV_AT_EPOCH":290,"BSTAR":0.00040183658,"MEAN_MOTION_DOT":7.816e-5,"MEAN_MOTION_DDOT":0},{"OBJECT_NAME":"TRANSPORTER-16 OBJECT BF","OBJECT_ID":"2026-067BF","EPOCH":"2026-04-17T20:02:59.079264","MEAN_MOTION":15.17298933,"ECCENTRICITY":0.00015878,"INCLINATION":97.45,"RA_OF_ASC_NODE":67.188,"ARG_OF_PERICENTER":293.4135,"MEAN_ANOMALY":66.6931,"EPHEMERIS_TYPE":0,"CLASSIFICATION_TYPE":"U","NORAD_CAT_ID":68469,"ELEMENT_SET_NO":999,"REV_AT_EPOCH":278,"BSTAR":0.00011051144,"MEAN_MOTION_DOT":2.135e-5,"MEAN_MOTION_DDOT":0}]
