TRANSPORTER-16 OBJECT AQ
1 68454U 26067AQ  26107.83956263  .00004324  00000+0  22213-3 0  9991
2 68454  97.4536  67.1906 0003385 277.7615  82.3234 15.17010733  2783
TRANSPORTER-16 OBJECT AR
1 68455U 26067AR  26107.84118952  .00003484  00000+0  18048-3 0  9995
2 68455  97.4537  67.1879 0003786 275.9303  84.1499 15.16843890  2783
PARUS-6U1               
1 68456U 26067AS  26107.84104702  .00004104  00000+0  21185-3 0  9990
2 68456  97.4512  67.1822 0003730 276.5615  83.5194 15.16870724  2788
TRANSPORTER-16 OBJECT AT
1 68457U 26067AT  26107.82428810  .00007300  00000+0  35889-3 0  9995
2 68457  97.4509  67.2034 0002319 134.6246 225.5178 15.18325271  2781
SAL-E                   
1 68458U 26067AU  26107.84135456  .00005731  00000+0  29434-3 0  9994
2 68458  97.4438  67.1660 0003974 291.1678  68.9131 15.16877365  2785
TRANSPORTER-16 OBJECT AV
1 68459U 26067AV  26108.63377330  .00005298  00000+0  27303-3 0  9993
2 68459  97.4496  67.9546 0004112 273.5923  86.4840 15.16795655  2900
COSMO                   
1 68460U 26067AW  26107.84188686  .00005296  00000+0  27268-3 0  9999
2 68460  97.4460  67.1701 0004124 283.9089  76.1685 15.16825796  2788
TRANSPORTER-16 OBJECT AX
1 68461U 26067AX  26107.83587568  .00005394  00000+0  27378-3 0  9992
2 68461  97.4514  67.1908 0001864 288.2945  71.8085 15.17322382  2785
TRANSPORTER-16 OBJECT AY
1 68462U 26067AY  26107.82913261  .00005545  00000+0  27690-3 0  9990
2 68462  97.4517  67.2005 0001243 183.4572 176.6654 15.17883455  2780
TRANSPORTER-16 OBJECT AZ
1 68463U 26067AZ  26107.83578162  .00000779  00000+0  42414-4 0  9995
2 68463  97.4493  67.1871 0001771 294.0660  66.0388 15.17293251  2782
TRANSPORTER-16 OBJECT BA
1 68464U 26067BA  26107.83589262  .00003463  00000+0  17723-3 0  9996
2 68464  97.4478  67.1810 0001524 313.8014  46.3094 15.17281095  2786
TRANSPORTER-16 OBJECT BB
1 68465U 26067BB  26107.83606405  .00002142  00000+0  11100-3 0  9992
2 68465  97.4483  67.1823 0001663 308.0006  52.1077 15.17246757  2780
TRANSPORTER-16 OBJECT BC
1 68466U 26067BC  26107.84255652  .00005100  00000+0  26316-3 0  9990
2 68466  97.4446  67.1649 0004308 300.9886  59.0924 15.16762425  2637
TRANSPORTER-16 OBJECT BD
1 68467U 26067BD  26107.84003634  .00011541  00000+0  58475-3 0  9999
2 68467  97.4378  67.1558 0004247 295.3984  64.6810 15.17124836  2780
ERMIS-1                 
1 68468U 26067BE  26108.63518419  .00007816  00000+0  40184-3 0  9998
2 68468  97.4522  67.9588 0004680 263.2357  96.8344 15.16725190  2904
TRANSPORTER-16 OBJECT BF
1 68469U 26067BF  26107.83540601  .00002135  00000+0  11051-3 0  9998
2 68469  97.4500  67.1880 0001587 293.4135  66.6931 15.17298933  2784
